#dP2019  7 18  0  0  0.00000000     288   u+U IGS14 FIT  GFZ                    
## 2062 345600.00000000   300.00000000 58682 0.0000000000000                    
+   96   C01C02C03C04C05C06C07C08C09C10C11C12C13C14C16E01E02                    
+        E03E04E05E07E08E09E11E12E13E14E15E18E19E21E24E25E26                    
+        E27E30E31E33E36G01G02G03G05G06G07G08G09G10G11G12G13                    
+        G14G15G16G17G18G19G20G21G22G23G24G25G26G27G28G29G30                    
+        G31G32J01J02J03R01R02R03R04R05R07R08R09R10R11R12R13                    
+        R14R15R16R17R18R19R20R21R22R23R24 00 00 00 00 00 00                    
++        10 10 10 10  9  8  7  8 10 10  8  8  7 10 10  7  6                    
++         8  7  6  6  6  8  6  8  6  6  6  6  7  7  6  7  7                    
++         7  6  7  6 10  5  5  6  6  5  6  6  6  9  6  6  8                    
++         6  7  5  6  6  6  6  6  5  8  6  7  6  5  7  0  7                    
++         6  8 10 10 10  8  6  7  7  0  7  8  9  7  5  7  8                    
++         7  6  8  6 10 10  7  7  6 10  0  7  7  7  7  7  7                    
%c M  cc GPS ccc cccc cccc cccc cccc ccccc ccccc ccccc ccccc                    
%c cc cc ccc ccc cccc cccc cccc cccc ccccc ccccc ccccc ccccc                    
%f  1.2500000  1.025000000  0.00000000000  0.000000000000000                    
%f  0.0000000  0.000000000  0.00000000000  0.000000000000000                    
%i    0    0    0    0      0      0      0      0         0                    
%i    0    0    0    0      0      0      0      0         0                    
/* PCV:IGS14_2061 OL/AL:FES2004  NONE     YN CLK:CoN ORB:CoN                    
/*     GeoForschungsZentrum Potsdam                                             
/*                                                                              
/*                                                                              
*  2019  7 18  5  0  0.00000000                                                 
PC01 -32317.468423  27047.326385    515.482698    851.139788                    
PC02   4379.010851  41945.970733    293.854474     28.161405                    
PC03 -14836.716908  39445.189978    678.969545    778.717109                    
PC04 -39608.222567  14406.817199    553.852517    199.903902                    
PC05  21903.921688  36016.080475     88.426557   -401.029792                    
PC06 -21038.894205  22461.400361 -28643.132176    539.396696                    
PC07 -18027.831677  37632.219535  -3684.031392     -9.943827                    
PC08  -3849.081678  27655.830456  31759.971657    168.168728                    
PC09  -4604.072919  24431.989335 -33844.891543   -178.601552                    
PC10  -7251.580953  40121.787293   9978.249736      2.599689                    
PC11  -3893.874499 -16565.582300 -22055.611092    262.909098                    
PC12  23294.817400  -3081.121807 -15060.739090    875.813659                    
PC13   6219.120800  34562.909302  23567.955114   -849.861054                    
PC14  14587.775970 -22093.489643   8826.290989    528.382128                    
PC16 -18322.513684  22989.580307 -30250.216421   -889.206571                    
PE01  -3479.003656 -26596.660983 -12526.177615   -649.418088                    
PE02   3525.674067  26559.648177  12584.514598     69.806413                    
PE03   5981.993746  16071.261603 -24119.263945   -189.473872                    
PE04 -23820.871447  -4400.265030  17021.152579   -325.623014                    
PE05 -15550.813684  18438.447689 -17145.955898   -465.450927                    
PE07  27857.731849 -10024.449412    209.968088   -228.581237                    
PE08  23907.951106   4006.938633 -16986.958246   6322.221588                    
PE09 -27763.187536  10236.229928   -213.552447   6375.472201                    
PE11 -20410.059884   1462.517944  21383.815850   5650.817340                    
PE12 -24599.090687 -15332.675807   6039.763151   6292.757062                    
PE13  20424.697819  -1409.054565 -21376.896662    390.147284                    
PE14  -7966.444899 -20217.124536 -24047.098389   -647.030154                    
PE15  24716.316892  14975.170477  -6399.630841    902.801330                    
PE18  12655.061202  13403.215385  15150.116889   -742.564136                    
PE19  -3753.276792 -16683.508312  24171.381405     -5.089445                    
PE21   9253.078261 -27400.220497   6336.300124   -544.725080                    
PE24 -16635.698760  12194.336654 -21242.150225   5971.363475                    
PE25  -9285.761972  27360.845514  -6396.124326   1739.154598                    
PE26   4325.071573 -17145.063392 -23739.626320   4327.830212                    
PE27  16558.286464 -12020.605488  21396.981085    426.805024                    
PE30  14176.365977  10260.965346  23866.663773   4701.923079                    
PE31 -14116.889605 -10382.922656 -23849.392010   -466.561069                    
PE33 -14542.689914 -22628.311282 -12361.109741   -469.821418                    
PE36  -4151.292581  17010.501343  23863.935140    686.144593                    
PG01 -18207.160226  -7353.231099  17840.809295    -70.421318                    
PG02  14677.888025  22229.543732    446.292557   -262.650959                    
PG03 -17749.198723   4218.481856  19226.795225    180.468759                    
PG05   7624.914587  15936.437586 -19899.097608     -0.026768                    
PG06   3876.763379  23133.566324  12468.254283    146.261273                    
PG07 -12811.158200   8220.839155 -21482.433011    -66.623758                    
PG08 -24603.951671  -5416.748470  -8712.300613   -151.614270                    
PG09 -22231.894271   8785.111438 -11624.908924    368.417518                    
PG10  10683.932582 -23947.829516   3516.250999    -19.993857                    
PG11 -23436.020822  -6565.953517   9777.122742   -558.424142                    
PG12  16687.447527   -591.946152  20396.976700    222.829199                    
PG13  17429.142915  12811.003600 -15558.045300    -54.091700                    
PG14  -2575.318662 -15468.703277  21781.858856    -70.998001                    
PG15  25241.629221   3662.957003  -8363.473984   -300.174939                    
PG16  -5453.728587 -16131.658343 -20447.902788    -57.162131                    
PG17  -6701.915542  14211.429415  21809.073668     90.649729                    
PG18 -18938.538645 -14931.568964  10760.899847     70.757979                    
PG19    364.432619  14676.855883  21826.045579   -292.726290                    
PG20  14182.428841 -21386.759417  -6616.497481    526.015159                    
PG21   8060.379991 -14060.944507 -20283.966410   -152.678920                    
PG22 -15802.329502  -3759.618902  21235.978081   -732.520412                    
PG23 -26763.619919   -121.469945   1214.449424   -176.706183                    
PG24  19633.461048   9267.116078  15363.292796    -68.947965                    
PG25  18167.371092 -14135.901202  12815.595670     -1.707928                    
PG26   1405.150787 -22863.887143 -13307.211900    253.935402                    
PG27 -15259.234710 -12141.886490 -18282.844682   -188.121419                    
PG28 -12451.002783  23202.142423   4457.115752    766.306969                    
PG29  24589.692937  -4573.272291  -9000.659058    148.558461                    
PG30  -5227.604155  18476.929321 -18240.522335     -1.310248                    
PG31  -4376.178613 -23632.334536  10791.663835     23.552707                    
PG32   5916.395805 -15011.749746  21139.983005      1.496115                    
PJ01 -34486.945692  24238.897619   4667.951686   -271.322735                    
PJ02 -19782.299871  28440.055765 -19528.512696     -1.262192                    
PJ03 -28570.192711  24797.910872  23574.627287      0.019493                    
PR01  -5173.605222  14920.125410 -20020.151169     46.871192                    
PR02  13891.426737   3110.434487 -21110.136405    378.865860                    
PR03  22197.124349  -9173.797066  -8481.821919     -1.512196                    
PR04  17223.403446 -16218.412980   9539.632937    314.226828                    
PR05   3106.379244 -13756.206288  21264.522479     32.111461                    
PR07 -22308.128711   9437.336769   8094.700341    -23.580836                    
PR08 -17784.110583  16054.955648  -8709.451191     16.700668                    
PR09 -10057.835737 -12686.954122 -19721.895607     80.688870                    
PR10 -10549.685872   3668.098256 -22942.071753     54.658615                    
PR11  -5615.841759  21042.097786 -13218.475339    -73.043531                    
PR12   2383.739143  25226.954900   3031.368233     44.626815                    
PR13   9495.945740  14595.003715  18622.032609    -26.041572                    
PR14  10734.435306  -4100.013267  22789.561007     41.059950                    
PR15   5929.520244 -20485.119170  14022.967546    103.132194                    
PR16  -2889.800204 -25088.295202  -3170.437818      7.372980                    
PR17  21260.567246   4388.114125 -13423.513503    244.557668                    
PR18   9304.861254  -6713.015284 -22767.699732      0.636633                    
PR19  -7149.377519 -14284.212676 -19891.951359    -42.764639                    
PR20 -21024.709742 -13941.417252  -3930.319241   -384.636902                    
PR21 -20915.851286  -3976.777921  14022.267826    -60.456044                    
PR22  -6827.215520   8175.906894  23180.787748    -28.931592                    
PR23  12424.314956  15105.501035  16361.109380    241.391209                    
PR24  21918.453914  12881.176099   1966.466649   -182.731084                    
EOF                                     
